{
  "norad_id": 63476,
  "name": "STARLINK-33718",
  "history": [
    {
      "epoch": "2026-03-28T20:56:30.068736Z",
      "apogee_km": 483.4848749089142,
      "perigee_km": 482.58729624585885,
      "latitude_deg": 6.157263240592485e-05,
      "longitude_deg": 10.750698882390093,
      "height_km": 482.3959566297789,
      "semi_major_axis_km": 6861.173085577387,
      "eccentricity": 6.541e-05,
      "inclination_deg": 42.9965,
      "raan_deg": 151.1627,
      "arg_perigee_deg": 337.7747,
      "mean_anomaly_deg": 22.3077,
      "mean_motion_rev_day": 15.27584345
    },
    {
      "epoch": "2026-03-30T04:19:37.514784Z",
      "apogee_km": 483.212532128342,
      "perigee_km": 482.7953747583724,
      "latitude_deg": 6.468451056456138e-06,
      "longitude_deg": -108.70363706913514,
      "height_km": 482.5707388876107,
      "semi_major_axis_km": 6861.140953443357,
      "eccentricity": 3.04e-05,
      "inclination_deg": 42.995,
      "raan_deg": 143.7784,
      "arg_perigee_deg": 3.9982,
      "mean_anomaly_deg": 356.0872,
      "mean_motion_rev_day": 15.27595076
    }
  ]
}